ONEWEB-0707             
1 61612U 24188U   25226.33803861  .00000326  00000+0  89712-3 0  9998
2 61612  87.8775  97.4382 0001119  79.2275 280.8979 13.10373339 43134
ONEWEB-0708             
1 61613U 24188V   25226.35629566 -.00000529  00000+0 -15505-2 0  9994
2 61613  87.8808  97.4689 0001140 102.4968 257.6287 13.10371285 43114
